     3.04           N: GNSS NAV DATA    M: MIXED            RINEX VERSION / TYPE
ssrcrin-15.6.1x                         20250101 131500 UTC PGM / RUN BY / DATE 
    18                                                      LEAP SECONDS        
                                                            END OF HEADER       
S21 2025 01 01 13 13 52 0.000000000000E+00 0.000000000000E+00 3.069240000000E+05
     4.200468400000E+04 0.000000000000E+00 0.000000000000E+00 6.300000000000E+01
    -3.674932960000E+03 0.000000000000E+00 0.000000000000E+00 3.276700000000E+04
     0.000000000000E+00 0.000000000000E+00 0.000000000000E+00 1.390000000000E+02
S28 2025 01 01 13 14 40 8.428469300270E-08 2.728484105319E-11 3.069240000000E+05
     5.075199840000E+03 1.576875000000E-03 1.875000000000E-07 6.300000000000E+01
     4.186915632000E+04 1.038750000000E-03-7.500000000000E-08 3.276700000000E+04
     2.269240000000E+01 3.960000000000E-04-1.250000000000E-07 1.840000000000E+02
S27 2025 01 01 13 14 40 2.565793693066E-07 6.366462912410E-11 3.069410000000E+05
     2.407498472000E+04 7.343750000000E-04 3.875000000000E-07 3.100000000000E+01
     3.460621624000E+04 2.794375000000E-03-1.875000000000E-07 4.096000000000E+03
    -5.621192000000E+02-1.340000000000E-03 3.000000000000E-06 1.840000000000E+02
S23 2025 01 01 13 15 44 0.000000000000E+00 0.000000000000E+00 3.069580000000E+05
     3.866796400000E+04 0.000000000000E+00 0.000000000000E+00 6.300000000000E+01
     1.681330800000E+04 0.000000000000E+00 0.000000000000E+00 3.276700000000E+04
     0.000000000000E+00 0.000000000000E+00 0.000000000000E+00 1.100000000000E+02
S36 2025 01 01 13 16 00 0.000000000000E+00 0.000000000000E+00 3.069680000000E+05
     4.200368800000E+04 0.000000000000E+00 0.000000000000E+00 6.300000000000E+01
     3.674846960000E+03 0.000000000000E+00 0.000000000000E+00 3.276700000000E+04
     0.000000000000E+00 0.000000000000E+00 0.000000000000E+00 2.080000000000E+02
S44 2025 01 01 13 16 48 8.409842848778E-07 0.000000000000E+00 3.069920000000E+05
     7.265444240000E+03 4.199375000000E-03 1.625000000000E-07 6.300000000000E+01
     4.153748528000E+04 2.148750000000E-03-2.500000000000E-07 3.276700000000E+04
    -5.189468000000E+02 1.351960000000E-01 1.375000000000E-06 6.000000000000E+01
S21 2025 01 01 13 16 32 0.000000000000E+00 0.000000000000E+00 3.070050000000E+05
     4.200468400000E+04 0.000000000000E+00 0.000000000000E+00 6.300000000000E+01
    -3.674932960000E+03 0.000000000000E+00 0.000000000000E+00 3.276700000000E+04
     0.000000000000E+00 0.000000000000E+00 0.000000000000E+00 1.400000000000E+02
S23 2025 01 01 13 17 52 0.000000000000E+00 0.000000000000E+00 3.070830000000E+05
     3.866796400000E+04 0.000000000000E+00 0.000000000000E+00 6.300000000000E+01
     1.681330800000E+04 0.000000000000E+00 0.000000000000E+00 3.276700000000E+04
     0.000000000000E+00 0.000000000000E+00 0.000000000000E+00 1.110000000000E+02
S44 2025 01 01 13 18 56 8.409842848778E-07 0.000000000000E+00 3.071120000000E+05
     7.265984480000E+03 4.241250000000E-03 1.625000000000E-07 6.300000000000E+01
     4.153775616000E+04 2.083125000000E-03-2.500000000000E-07 3.276700000000E+04
    -5.016192000000E+02 1.355440000000E-01 1.312500000000E-06 6.000000000000E+01
S27 2025 01 01 13 18 56 2.728775143623E-07 6.821210263297E-11 3.071140000000E+05
     2.407518544000E+04 8.181250000000E-04 3.875000000000E-07 3.100000000000E+01
     3.460692544000E+04 2.739375000000E-03-1.875000000000E-07 4.096000000000E+03
    -5.623640000000E+02-5.720000000000E-04 3.000000000000E-06 1.850000000000E+02
S28 2025 01 01 13 18 56 9.126961231232E-08 3.183231456205E-11 3.071140000000E+05
     5.075609680000E+03 1.622500000000E-03 1.875000000000E-07 6.300000000000E+01
     4.186941976000E+04 1.009375000000E-03-7.500000000000E-08 3.276700000000E+04
     2.278960000000E+01 3.640000000000E-04-1.250000000000E-07 1.850000000000E+02
S36 2025 01 01 13 18 40 0.000000000000E+00 0.000000000000E+00 3.071240000000E+05
     4.200368800000E+04 0.000000000000E+00 0.000000000000E+00 6.300000000000E+01
     3.674846960000E+03 0.000000000000E+00 0.000000000000E+00 3.276700000000E+04
     0.000000000000E+00 0.000000000000E+00 0.000000000000E+00 2.090000000000E+02
E19 2025 01 01 13 00 00 1.170410250779E-03 5.611866527033E-11 0.000000000000E+00
     2.000000000000E+00-1.610625000000E+02 2.712255833485E-09-3.109971685158E+00
    -7.586553692818E-06 1.493355957791E-04 1.125410199165E-05 5.440629894257E+03
     3.060000000000E+05 1.862645149231E-08 3.191401301303E-01 1.117587089539E-08
     9.691148946110E-01 1.029062500000E+02-2.105774805173E+00-5.183073038654E-09
     3.310852195998E-10 5.170000000000E+02 2.347000000000E+03
     3.120000000000E+00 0.000000000000E+00-6.752088665962E-09-6.053596735001E-09
     3.071640000000E+05
E19 2025 01 01 13 00 00 1.170409435872E-03 5.609024356090E-11 0.000000000000E+00
     2.000000000000E+00-1.610625000000E+02 2.712255833485E-09-3.109971685158E+00
    -7.586553692818E-06 1.493355957791E-04 1.125410199165E-05 5.440629894257E+03
     3.060000000000E+05 1.862645149231E-08 3.191401301303E-01 1.117587089539E-08
     9.691148946110E-01 1.029062500000E+02-2.105774805173E+00-5.183073038654E-09
     3.310852195998E-10 2.580000000000E+02 2.347000000000E+03
     3.120000000000E+00 0.000000000000E+00-6.752088665962E-09 0.000000000000E+00
     3.071700000000E+05
S21 2025 01 01 13 19 28 0.000000000000E+00 0.000000000000E+00 3.071700000000E+05
     4.200468400000E+04 0.000000000000E+00 0.000000000000E+00 6.300000000000E+01
    -3.674932960000E+03 0.000000000000E+00 0.000000000000E+00 3.276700000000E+04
     0.000000000000E+00 0.000000000000E+00 0.000000000000E+00 1.410000000000E+02
S23 2025 01 01 13 20 00 0.000000000000E+00 0.000000000000E+00 3.072100000000E+05
     3.866796400000E+04 0.000000000000E+00 0.000000000000E+00 6.300000000000E+01
     1.681330800000E+04 0.000000000000E+00 0.000000000000E+00 3.276700000000E+04
     0.000000000000E+00 0.000000000000E+00 0.000000000000E+00 1.120000000000E+02
S44 2025 01 01 13 20 00 8.409842848778E-07 0.000000000000E+00 3.072320000000E+05
     7.266256640000E+03 4.261875000000E-03 1.500000000000E-07 6.300000000000E+01
     4.153788840000E+04 2.049375000000E-03-2.500000000000E-07 3.276700000000E+04
    -4.929388000000E+02 1.357120000000E-01 1.312500000000E-06 6.000000000000E+01
E07 2025 01 01 13 10 00-1.612804480828E-04-2.074784788419E-12 0.000000000000E+00
     3.000000000000E+00-1.814687500000E+02 2.815117260934E-09 2.946264084731E+00
    -8.257105946541E-06 1.257038675249E-04 1.282431185246E-05 5.440619794846E+03
     3.066000000000E+05-2.235174179077E-08 3.132747956213E-01 2.421438694000E-08
     9.636283842015E-01 6.650000000000E+01-2.949277533590E-01-5.228789228631E-09
     3.435857402966E-10 5.170000000000E+02 2.347000000000E+03
     3.120000000000E+00 0.000000000000E+00 3.026798367500E-09 4.190951585770E-09
     3.072650000000E+05
E27 2025 01 01 13 10 00-5.448848241940E-04-9.919176591211E-12 0.000000000000E+00
     3.000000000000E+00-1.675000000000E+01 3.511932000350E-09-9.350103389337E-03
    -6.929039955139E-07 3.205174580216E-04 6.163492798805E-06 5.440601781845E+03
     3.066000000000E+05 4.656612873077E-08 2.413579551139E+00-1.862645149231E-08
     9.642088891133E-01 2.061562500000E+02 5.523598367129E-01-5.544516665660E-09
    -6.521700226420E-10 5.170000000000E+02 2.347000000000E+03
     3.120000000000E+00 0.000000000000E+00-4.656612873077E-10 4.656612873077E-10
     3.072650000000E+05
E34 2025 01 01 13 10 00-1.550996094011E-04-2.216893335572E-12 0.000000000000E+00
     3.000000000000E+00 1.685937500000E+02 2.541177278805E-09 2.178405336263E+00
     7.934868335724E-06 1.908385893330E-04 2.663582563400E-07 5.440606088638E+03
     3.066000000000E+05 8.568167686462E-08-1.777746334431E+00 5.029141902924E-08
     9.995103224397E-01 3.531250000000E+02-2.151017723596E+00-5.624519998120E-09
     3.610864692722E-10 5.170000000000E+02 2.347000000000E+03
     3.120000000000E+00 0.000000000000E+00 6.984919309616E-10 2.561137080193E-09
     3.072650000000E+05
E08 2025 01 01 13 10 00-3.934011328965E-04-6.252776074689E-12 0.000000000000E+00
     3.000000000000E+00-1.638750000000E+02 2.673325640458E-09 2.794913239835E+00
    -7.696449756622E-06 1.752035459504E-04 1.315772533417E-05 5.440622671127E+03
     3.066000000000E+05-3.539025783539E-08 3.140540759900E-01-5.587935447693E-09
     9.694258071275E-01 6.321875000000E+01 6.451315313349E-01-5.194502086148E-09
     3.514432104489E-10 5.170000000000E+02 2.347000000000E+03
     3.120000000000E+00 0.000000000000E+00-5.820766091347E-09-5.820766091347E-09
     3.072650000000E+05
E11 2025 01 01 13 10 00-7.068319246173E-05-2.198987658630E-10-3.469446951954E-18
     3.000000000000E+00 1.576250000000E+02 2.565464004730E-09 1.451914410314E+00
     7.353723049164E-06 2.606081543490E-04 8.121132850647E-07 5.440612804413E+03
     3.066000000000E+05 5.587935447693E-09-1.775208850357E+00 7.450580596924E-09
     9.965825581552E-01 3.396250000000E+02 1.133181932547E-01-5.660592929274E-09
     2.892977646988E-10 5.170000000000E+02 2.347000000000E+03
     3.120000000000E+00 0.000000000000E+00-1.676380634308E-08-1.722946763039E-08
     3.072650000000E+05
S36 2025 01 01 13 21 04 0.000000000000E+00 0.000000000000E+00 3.072760000000E+05
     4.200368800000E+04 0.000000000000E+00 0.000000000000E+00 6.300000000000E+01
     3.674846960000E+03 0.000000000000E+00 0.000000000000E+00 3.276700000000E+04
     0.000000000000E+00 0.000000000000E+00 0.000000000000E+00 2.100000000000E+02
